NORAD_CAT_ID,OBJECT_NAME,OBJECT_TYPE,EPOCH,MEAN_MOTION,ECCENTRICITY,INCLINATION,RA_OF_ASC_NODE,ARG_OF_PERICENTER,MEAN_ANOMALY,BSTAR,MEAN_MOTION_DOT,MEAN_MOTION_DDOT,TLE_LINE0,TLE_LINE1,TLE_LINE2,SEMIMAJOR_AXIS,PERIOD,APOGEE,PERIGEE,DECAYED
50848.0,STARLINK-3315,PAYLOAD,2022-10-01 12:58:40,15.08859241,0.0002002,53.2176,53.7172,45.5091,314.6065,0.00035192,5.320000000000001e-05,0.0,0 STARLINK-3315,1 50848U 22001AX  22274.54074331  .00005320  00000-0  35192-3 0  9997,2 50848  53.2176  53.7172 0002002  45.5091 314.6065 15.08859241 40781,6917.821999999999,95.436,541.072,538.302,0.0
50848.0,STARLINK-3315,PAYLOAD,2022-10-01 19:20:12,15.08850155,0.0002045999999999,53.2179,52.5282,44.1846,315.9309,0.00020668,3.004e-05,0.0,0 STARLINK-3315,1 50848U 22001AX  22274.80570569  .00003004  00000-0  20668-3 0  9999,2 50848  53.2179  52.5282 0002046  44.1846 315.9309 15.08850155 42135,6917.849,95.437,541.13,538.299,0.0
50848.0,STARLINK-3315,PAYLOAD,2022-10-02 12:49:28,15.08831407,0.0001891,53.2173,49.2567,40.0599,320.0533,-0.00014413,-2.581e-05,0.0,0 STARLINK-3315,1 50848U 22001AX  22275.53435379 -.00002581  00000-0 -14413-3 0  9991,2 50848  53.2173  49.2567 0001891  40.0599 320.0533 15.08831407 42242,6917.906999999997,95.438,541.08,538.4630000000002,0.0
50848.0,STARLINK-3315,PAYLOAD,2022-10-02 19:11:00,15.08838629,0.0001933,53.2175,48.0675,39.0956,321.0176,-3.63e-05,-8.66e-06,0.0,0 STARLINK-3315,1 50848U 22001AX  22275.79931118 -.00000866  00000-0 -36300-4 0  9995,2 50848  53.2175  48.0675 0001933  39.0956 321.0176 15.08838629 40978,6917.885,95.438,541.087,538.4119999999998,0.0
50848.0,STARLINK-3315,PAYLOAD,2022-10-03 01:32:32,15.08842729,0.0001966999999999,53.2175,46.878,38.7994,321.3139,0.00013857,1.918e-05,0.0,0 STARLINK-3315,1 50848U 22001AX  22276.06427023  .00001918  00000-0  13857-3 0  9999,2 50848  53.2175  46.8780 0001967  38.7994 321.3139 15.08842729 42325,6917.871999999999,95.437,541.0980000000002,538.376,0.0
50848.0,STARLINK-3315,PAYLOAD,2022-10-03 12:40:14,15.0884491,0.0001985,53.2174,44.7964,37.7227,322.3904,0.00047615,7.299e-05,0.0,0 STARLINK-3315,1 50848U 22001AX  22276.52795034  .00007299  00000-0  47615-3 0  9997,2 50848  53.2174  44.7964 0001985  37.7227 322.3904 15.08844910 41080,6917.865,95.437,541.104,538.357,0.0
50848.0,STARLINK-3315,PAYLOAD,2022-10-03 19:01:47,15.08854901,0.0002002,53.2173,43.607,39.7559,320.358,0.00075141,0.00011696,0.0,0 STARLINK-3315,1 50848U 22001AX  22276.79290827  .00011696  00000-0  75141-3 0  9997,2 50848  53.2173  43.6070 0002002  39.7559 320.3580 15.08854901 41120,6917.835,95.437,541.085,538.315,0.0
50848.0,STARLINK-3315,PAYLOAD,2022-10-04 12:31:01,15.08842692,0.0002056999999999,53.2174,40.3358,38.4692,321.6446,0.00020406,2.961e-05,0.0,0 STARLINK-3315,1 50848U 22001AX  22277.52154817  .00002961  00000-0  20406-3 0  9996,2 50848  53.2174  40.3358 0002057  38.4692 321.6446 15.08842692 41239,6917.871999999999,95.437,541.16,538.314,0.0
50848.0,STARLINK-3315,PAYLOAD,2022-10-04 14:06:24,15.08844658,0.0001855999999999,53.2174,40.0382,43.702,316.4119,0.00011667,1.569e-05,0.0,0 STARLINK-3315,1 50848U 22001AX  22277.58778551  .00001569  00000-0  11667-3 0  9991,2 50848  53.2174  40.0382 0001856  43.7020 316.4119 15.08844658 42552,6917.866,95.437,541.015,538.447,0.0
50848.0,STARLINK-3315,PAYLOAD,2022-10-04 20:27:57,15.08842374,0.0001969,53.2176,38.849,35.8144,324.298,0.00019762,2.859e-05,0.0,0 STARLINK-3315,1 50848U 22001AX  22277.85274841  .00002859  00000-0  19762-3 0  9991,2 50848  53.2176  38.8490 0001969  35.8144 324.2980 15.08842374 41288,6917.873000000001,95.437,541.1,538.376,0.0
50848.0,STARLINK-3315,PAYLOAD,2022-10-05 12:21:48,15.08850677,0.0002068,53.2169,35.8755,36.6707,323.4427,0.00062299,9.644e-05,0.0,0 STARLINK-3315,1 50848U 22001AX  22278.51514404  .00009644  00000-0  62299-3 0  9999,2 50848  53.2169  35.8755 0002068  36.6707 323.4427 15.08850677 41389,6917.848000000001,95.437,541.143,538.2819999999998,0.0
50848.0,STARLINK-3315,PAYLOAD,2022-10-05 15:32:34,15.08846234,0.0002083,53.2169,35.2807,37.2699,322.8437,0.00045528,6.966e-05,0.0,0 STARLINK-3315,1 50848U 22001AX  22278.64762469  .00006966  00000-0  45528-3 0  9999,2 50848  53.2169  35.2807 0002083  37.2699 322.8437 15.08846234 42711,6917.861,95.437,541.1669999999998,538.285,0.0
50848.0,STARLINK-3315,PAYLOAD,2022-10-05 20:18:44,15.08837516,0.000217,53.217,34.3888,38.3756,321.7390000000001,5.6285e-05,6.08e-06,0.0,0 STARLINK-3315,1 50848U 22001AX  22278.84634746  .00000608  00000-0  56285-4 0  9997,2 50848  53.2170  34.3888 0002170  38.3756 321.7390 15.08837516 41432,6917.888000000001,95.438,541.254,538.252,0.0
50848.0,STARLINK-3315,PAYLOAD,2022-10-06 02:40:17,15.08833386,0.0002194,53.2173,33.1992,39.3109,320.8042,-4.0945e-05,-9.4e-06,0.0,0 STARLINK-3315,1 50848U 22001AX  22279.11131043 -.00000940  00000-0 -40945-4 0  9997,2 50848  53.2173  33.1992 0002194  39.3109 320.8042 15.08833386 42781,6917.901,95.438,541.283,538.248,0.0
50848.0,STARLINK-3315,PAYLOAD,2022-10-06 12:12:36,15.0883251,0.0002117,53.2185,31.4158,38.9917,321.1227,-5.2374e-05,-1.122e-05,0.0,0 STARLINK-3315,1 50848U 22001AX  22279.50876009 -.00001122  00000-0 -52374-4 0  9990,2 50848  53.2185  31.4158 0002117  38.9917 321.1227 15.08832510 41535,6917.903,95.438,541.2330000000002,538.304,0.0
50848.0,STARLINK-3315,PAYLOAD,2022-10-06 13:47:59,15.08838858,0.0002129,53.2185,31.1184,38.5898,321.5246,1.7436e-05,-1.1e-07,0.0,0 STARLINK-3315,1 50848U 22001AX  22279.57499425 -.00000011  00000-0  17436-4 0  9995,2 50848  53.2185  31.1184 0002129  38.5898 321.5246 15.08838858 41545,6917.884,95.438,541.222,538.276,0.0
50848.0,STARLINK-3315,PAYLOAD,2022-10-07 02:31:03,15.08850851,0.0002213,53.2185,28.7399,36.5182,323.596,0.00017321,2.47e-05,0.0,0 STARLINK-3315,1 50848U 22001AX  22280.10490353  .00002470  00000-0  17321-3 0  9999,2 50848  53.2185  28.7399 0002213  36.5182 323.5960 15.08850851 42939,6917.847,95.437,541.243,538.181,0.0
50848.0,STARLINK-3315,PAYLOAD,2022-10-07 10:28:00,15.088393599999998,0.0002147,53.218,27.2524,38.2284,321.8861,0.00014389,2.003e-05,0.0,0 STARLINK-3315,1 50848U 22001AX  22280.43611256  .00002003  00000-0  14389-3 0  9995,2 50848  53.2180  27.2524 0002147  38.2284 321.8861 15.08839360 42984,6917.882,95.438,541.2330000000002,538.262,0.0
50848.0,STARLINK-3315,PAYLOAD,2022-10-07 13:38:46,15.0884342,0.0002243,53.2179,26.6579,36.3583,323.7561,0.00019503,2.817e-05,0.0,0 STARLINK-3315,1 50848U 22001AX  22280.56859074  .00002817  00000-0  19503-3 0  9997,2 50848  53.2179  26.6579 0002243  36.3583 323.7561 15.08843420 41690,6917.87,95.437,541.2869999999998,538.183,0.0
50848.0,STARLINK-3315,PAYLOAD,2022-10-08 11:54:11,15.08821258,0.0002119,53.2185,22.4946,40.1998,319.915,4.6096e-05,4.45e-06,0.0,0 STARLINK-3315,1 50848U 22001AX  22281.49596609  .00000445  00000-0  46096-4 0  9995,2 50848  53.2185  22.4946 0002119  40.1998 319.9150 15.08821258 43142,6917.938,95.439,541.269,538.337,0.0
50848.0,STARLINK-3315,PAYLOAD,2022-10-08 13:29:34,15.08825016,0.0002165,53.2182,22.1973,39.3388,320.7761,5.7849e-05,6.32e-06,0.0,0 STARLINK-3315,1 50848U 22001AX  22281.56220384  .00000632  00000-0  57849-4 0  9993,2 50848  53.2182  22.1973 0002165  39.3388 320.7761 15.08825016 41849,6917.926,95.439,541.289,538.293,0.0
50848.0,STARLINK-3315,PAYLOAD,2022-10-09 05:23:25,15.08835799,0.0002549,53.2176,19.225,28.803,331.3103,-5.7245e-05,-1.199e-05,0.0,0 STARLINK-3315,1 50848U 22001AX  22282.22460317 -.00001199  00000-0 -57245-4 0  9990,2 50848  53.2176  19.2250 0002549  28.8030 331.3103 15.08835799 43254,6917.893,95.438,541.5219999999998,537.995,0.0
50848.0,STARLINK-3315,PAYLOAD,2022-10-09 13:20:20,15.08844538,0.0002648999999999,53.2165,17.7373,28.9395,331.1744,4.0212e-05,3.52e-06,0.0,0 STARLINK-3315,1 50848U 22001AX  22282.55579540  .00000352  00000-0  40212-4 0  9999,2 50848  53.2165  17.7373 0002649  28.9395 331.1744 15.08844538 43303,6917.8669999999975,95.437,541.564,537.899,0.0
50848.0,STARLINK-3315,PAYLOAD,2022-10-10 11:35:44,15.08849993,0.0002443,53.2166,13.5741,37.2185,322.8977,-5.2692e-05,-1.127e-05,0.0,0 STARLINK-3315,1 50848U 22001AX  22283.48315474 -.00001127  00000-0 -52692-4 0  9994,2 50848  53.2166  13.5741 0002443  37.2185 322.8977 15.08849993 42134,6917.85,95.437,541.405,538.025,0.0
50848.0,STARLINK-3315,PAYLOAD,2022-10-11 01:54:13,15.08835463,0.0002696,53.2166,10.8988,26.1702,333.9426,2.9968e-05,1.88e-06,0.0,0 STARLINK-3315,1 50848U 22001AX  22284.07932473  .00000188  00000-0  29968-4 0  9998,2 50848  53.2166  10.8988 0002696  26.1702 333.9426 15.08835463 43533,6917.894,95.438,541.624,537.894,0.0
50848.0,STARLINK-3315,PAYLOAD,2022-10-11 09:51:09,15.0883392,0.000261,53.2162,9.4106,28.73,331.3836,8.6067e-06,-1.52e-06,0.0,0 STARLINK-3315,1 50848U 22001AX  22284.41052677 -.00000152  00000-0  86067-5 0  9991,2 50848  53.2162   9.4106 0002610  28.7300 331.3836 15.08833920 42276,6917.899,95.438,541.57,537.9580000000002,0.0
50848.0,STARLINK-3315,PAYLOAD,2022-10-11 16:12:42,15.08825447,0.0002418,53.2176,8.2235,27.7413,332.3707,-1.7891e-05,-5.73e-06,0.0,0 STARLINK-3315,1 50848U 22001AX  22284.67549481 -.00000573  00000-0 -17891-4 0  9999,2 50848  53.2176   8.2235 0002418  27.7413 332.3707 15.08825447 42319,6917.925,95.438,541.4630000000002,538.117,0.0
50848.0,STARLINK-3315,PAYLOAD,2022-10-12 11:17:20,15.08831017,0.0002625,53.2168,4.6549,29.4536,330.6604,2.3948e-05,9.3e-07,0.0,0 STARLINK-3315,1 50848U 22001AX  22285.47037586  .00000093  00000-0  23948-4 0  9991,2 50848  53.2168   4.6549 0002625  29.4536 330.6604 15.08831017 42433,6917.908,95.438,541.589,537.957,0.0
50848.0,STARLINK-3315,PAYLOAD,2022-10-12 14:28:06,15.08833682,0.0002577,53.2169,4.0602,29.8474,330.2664,1.1092e-05,-1.12e-06,0.0,0 STARLINK-3315,1 50848U 22001AX  22285.60285552 -.00000112  00000-0  11092-4 0  9994,2 50848  53.2169   4.0602 0002577  29.8474 330.2664 15.08833682 42453,6917.9,95.438,541.547,537.982,0.0
